H1 CPF 01  gfz 2022 03 13 13  5722 terrasarx 
H2 0702601  6201 31698    2022 03 13 12 59 42 2022 03 18 00 00 42   120 1 1  0 0 0
H9
10 0 59655  32382.000000  0    4606194.335  -3938179.912   3266831.579
10 0 59655  32502.000000  0    4766739.767  -4325876.297   2445832.150
10 0 59655  32622.000000  0    4837793.324  -4639954.713   1581760.405
10 0 59655  32742.000000  0    4819469.295  -4873364.604    689834.467
10 0 59655  32862.000000  0    4713570.381  -5020498.951   -214237.371
10 0 59655  32982.000000  0    4523529.060  -5077322.969  -1114541.340
10 0 59655  33102.000000  0    4254316.579  -5041471.358  -1995247.629
10 0 59655  33222.000000  0    3912320.266  -4912311.327  -2840896.441
10 0 59655  33342.000000  0    3505194.045  -4690970.200  -3636674.907
10 0 59655  33462.000000  0    3041685.931  -4380327.799  -4368678.462
10 0 59655  33582.000000  0    2531447.568  -3984974.100  -5024152.908
10 0 59655  33702.000000  0    1984829.745  -3511132.791  -5591710.542
10 0 59655  33822.000000  0    1412671.260  -2966556.002  -6061517.777
10 0 59655  33942.000000  0     826084.330  -2360392.649  -6425455.440
10 0 59655  34062.000000  0     236239.780  -1703030.780  -6677248.902
10 0 59655  34182.000000  0    -345842.622  -1005917.599  -6812565.468
10 0 59655  34302.000000  0    -909494.750   -281361.513  -6829080.103
10 0 59655  34422.000000  0   -1444590.661    457680.781  -6726510.494
10 0 59655  34542.000000  0   -1941724.438   1197829.912  -6506620.793
10 0 59655  34662.000000  0   -2392371.530   1925520.067  -6173194.524
10 0 59655  34782.000000  0   -2789032.967   2627241.548  -5731977.054
10 0 59655  34902.000000  0   -3125360.622   3289788.461  -5190587.370
10 0 59655  35022.000000  0   -3396261.593   3900506.942  -4558398.498
10 0 59655  35142.000000  0   -3597979.576   4447539.549  -3846385.646
10 0 59655  35262.000000  0   -3728149.395   4920059.651  -3066943.744
10 0 59655  35382.000000  0   -3785824.341   5308490.963  -2233678.940
10 0 59655  35502.000000  0   -3771477.193   5604708.945  -1361175.491
10 0 59655  35622.000000  0   -3686972.283   5802218.851   -464739.983
10 0 59655  35742.000000  0   -3535508.184   5896302.257    439872.021
10 0 59655  35862.000000  0   -3321534.661   5884130.162   1336739.625
10 0 59655  35982.000000  0   -3050641.958   5764839.084   2210067.283
10 0 59655  36102.000000  0   -2729425.703   5539565.503   3044473.353
10 0 59655  36222.000000  0   -2365332.908   5211438.665   3825268.019
10 0 59655  36342.000000  0   -1966493.241   4785534.384   4538716.475
10 0 59655  36462.000000  0   -1541539.576   4268790.509   5172282.695
10 0 59655  36582.000000  0   -1099421.448   3669886.288   5714849.742
10 0 59655  36702.000000  0    -649216.850   2999087.939   6156911.083
10 0 59655  36822.000000  0    -199946.645   2268065.205   6490731.520
10 0 59655  36942.000000  0     239604.787   1489683.819   6710476.163
10 0 59655  37062.000000  0     661060.440    677775.809   6812307.288
10 0 59655  37182.000000  0    1056609.224   -153107.102   6794446.012
10 0 59655  37302.000000  0    1419149.683   -987953.104   6657202.252
10 0 59655  37422.000000  0    1742417.284  -1811561.208   6402970.125
10 0 59655  37542.000000  0    2021093.080  -2608817.448   6036189.418
10 0 59655  37662.000000  0    2250892.262  -3364973.687   5563273.174
10 0 59655  37782.000000  0    2428630.977  -4065923.316   4992500.763
10 0 59655  37902.000000  0    2552269.780  -4698468.353   4333878.614
10 0 59655  38022.000000  0    2620934.677  -5250574.616   3598969.818
10 0 59655  38142.000000  0    2634913.491  -5711608.716   2800693.245
10 0 59655  38262.000000  0    2595626.984  -6072551.791   1953096.003
10 0 59655  38382.000000  0    2505575.809  -6326182.286   1071102.291
10 0 59655  38502.000000  0    2368265.226  -6467225.272    170246.261
10 0 59655  38622.000000  0    2188109.069  -6492466.197   -733609.050
10 0 59655  38742.000000  0    1970314.115  -6400822.033  -1624561.763
10 0 59655  38862.000000  0    1720747.288  -6193368.067  -2486959.345
10 0 59655  38982.000000  0    1445790.737  -5873322.587  -3305681.222
10 0 59655  39102.000000  0    1152188.608  -5445984.883  -4066407.260
10 0 59655  39222.000000  0     846891.096  -4918636.038  -4755867.313
10 0 59655  39342.000000  0     536897.386  -4300402.727  -5362068.416
10 0 59655  39462.000000  0     229101.982  -3602088.474  -5874495.962
10 0 59655  39582.000000  0     -69852.373  -2835975.814  -6284286.104
10 0 59655  39702.000000  0    -353712.086  -2015604.706  -6584367.576
10 0 59655  39822.000000  0    -616738.171  -1155531.567  -6769572.415
10 0 59655  39942.000000  0    -853817.455   -271073.062  -6836716.164
10 0 59655  40062.000000  0   -1060558.170    621962.485  -6784646.047
10 0 59655  40182.000000  0   -1233369.057   1507550.275  -6614257.756
10 0 59655  40302.000000  0   -1369520.365   2369729.311  -6328481.486
10 0 59655  40422.000000  0   -1467186.206   3192883.146  -5932238.087
10 0 59655  40542.000000  0   -1525468.341   3962019.935  -5432363.889
10 0 59655  40662.000000  0   -1544399.939   4663045.003  -4837503.714
10 0 59655  40782.000000  0   -1524930.134   5283023.407  -4157972.945
10 0 59655  40902.000000  0   -1468888.703   5810425.781  -3405587.881
10 0 59655  41022.000000  0   -1378930.975   6235351.567  -2593467.732
10 0 59655  41142.000000  0   -1258464.555   6549726.330  -1735811.345
10 0 59655  41262.000000  0   -1111558.834   6747467.159   -847649.481
10 0 59655  41382.000000  0    -942839.488   6824610.797     55420.347
10 0 59655  41502.000000  0    -757369.843   6779402.921    957513.558
10 0 59655  41622.000000  0    -560522.361   6612342.471   1842748.008
10 0 59655  41742.000000  0    -357843.710   6326177.429   2695533.917
10 0 59655  41862.000000  0    -154917.176   5925855.505   3500855.279
10 0 59655  41982.000000  0      42773.935   5418433.274   4244539.198
10 0 59655  42102.000000  0     229978.894   4812945.464   4913511.910
10 0 59655  42222.000000  0     401806.002   4120229.011   5496029.894
10 0 59655  42342.000000  0     553838.327   3352720.767   5981880.209
10 0 59655  42462.000000  0     682236.571   2524226.458   6362556.835
10 0 59655  42582.000000  0     783826.533   1649665.537   6631403.305
10 0 59655  42702.000000  0     856170.512    744798.377   6783723.286
10 0 59655  42822.000000  0     897621.012   -174059.172   6816856.664
10 0 59655  42942.000000  0     907355.939  -1090328.611   6730223.807
10 0 59655  43062.000000  0     885394.559  -1987467.864   6525335.930
10 0 59655  43182.000000  0     832594.008  -2849269.735   6205770.915
10 0 59655  43302.000000  0     750626.214  -3660156.826   5777114.329
10 0 59655  43422.000000  0     641935.687  -4405464.597   5246865.047
10 0 59655  43542.000000  0     509680.431  -5071709.541   4624310.629
10 0 59655  43662.000000  0     357655.757  -5646840.608   3920371.880
10 0 59655  43782.000000  0     190201.512  -6120467.840   3147415.004
10 0 59655  43902.000000  0      12095.336  -6484060.680   2319035.040
10 0 59655  44022.000000  0    -171565.775  -6731110.663   1449814.469
10 0 59655  44142.000000  0    -355492.404  -6857257.005    555063.074
10 0 59655  44262.000000  0    -534335.750  -6860370.341   -349460.573
10 0 59655  44382.000000  0    -702822.524  -6740588.983  -1247836.784
10 0 59655  44502.000000  0    -855887.757  -6500308.868  -2124273.579
10 0 59655  44622.000000  0    -988802.825  -6144129.545  -2963390.854
10 0 59655  44742.000000  0   -1097295.787  -5678757.119  -3750495.454
10 0 59655  44862.000000  0   -1177660.701  -5112865.873  -4471840.615
10 0 59655  44982.000000  0   -1226853.055  -4456923.392  -5114863.246
10 0 59655  45102.000000  0   -1242569.715  -3722985.701  -5668396.083
10 0 59655  45222.000000  0   -1223311.613  -2924466.896  -6122852.717
10 0 59655  45342.000000  0   -1168428.185  -2075887.874  -6470383.155
10 0 59655  45462.000000  0   -1078143.142  -1192609.712  -6704997.652
10 0 59655  45582.000000  0    -953561.682   -290557.422  -6822659.461
10 0 59655  45702.000000  0    -796658.583    614062.750  -6821346.466
10 0 59655  45822.000000  0    -610246.915   1505047.170  -6701081.265
10 0 59655  45942.000000  0    -397929.142   2366477.384  -6463930.754
10 0 59655  46062.000000  0    -164030.839   3182997.738  -6113975.551
10 0 59655  46182.000000  0      86483.565   3940086.254  -5657248.437
10 0 59655  46302.000000  0     348110.969   4624312.261  -5101639.773
10 0 59655  46422.000000  0     614923.535   5223577.671  -4456773.081
10 0 59655  46542.000000  0     880695.353   5727338.662  -3733849.221
10 0 59655  46662.000000  0    1139039.406   6126801.137  -2945460.430
10 0 59655  46782.000000  0    1383551.762   6415086.190  -2105377.261
10 0 59655  46902.000000  0    1607960.132   6587361.476  -1228310.336
10 0 59655  47022.000000  0    1806273.276   6640933.806   -329650.723
10 0 59655  47142.000000  0    1972927.003   6575298.956    574805.770
10 0 59655  47262.000000  0    2102922.532   6392147.726   1469143.296
10 0 59655  47382.000000  0    2191954.481   6095328.480   2337613.984
10 0 59655  47502.000000  0    2236524.870   5690766.415   3164923.131
10 0 59655  47622.000000  0    2234040.614   5186342.368   3936506.065
10 0 59655  47742.000000  0    2182890.768   4591732.926   4638790.949
10 0 59655  47862.000000  0    2082502.268   3918214.325   5259441.522
10 0 59655  47982.000000  0    1933372.486   3178437.631   5787570.469
10 0 59655  48102.000000  0    1737080.273   2386184.935   6213925.948
10 0 59655  48222.000000  0    1496273.705   1556106.767   6531049.509
10 0 59655  48342.000000  0    1214634.878    703446.119   6733400.318
10 0 59655  48462.000000  0     896823.123   -156242.751   6817444.819
10 0 59655  48582.000000  0     548397.816  -1007376.546   6781715.572
10 0 59655  48702.000000  0     175720.900  -1834625.730   6626836.331
10 0 59655  48822.000000  0    -214159.432  -2623190.491   6355511.663
99
